$$SOE
2460154.500000000, A.D. 2023-Jul-29 00:00:00.0000, -3.140656302391587E+08, 1.723798545148537E+08, -1.992228543868899E+07,
2460161.500000000, A.D. 2023-Aug-05 00:00:00.0000, -3.177722654980543E+08, 1.618864203747080E+08, -2.008797578316367E+07,
2460168.500000000, A.D. 2023-Aug-12 00:00:00.0000, -3.211404648585010E+08, 1.512205670577108E+08, -2.023226719208552E+07,
2460175.500000000, A.D. 2023-Aug-19 00:00:00.0000, -3.241618363373142E+08, 1.403913910173128E+08, -2.035470301919420E+07,
2460182.500000000, A.D. 2023-Aug-26 00:00:00.0000, -3.268280604906121E+08, 1.294083972184768E+08, -2.045483331366052E+07,
2460189.500000000, A.D. 2023-Sep-02 00:00:00.0000, -3.291309053104021E+08, 1.182815149745585E+08, -2.053221580514196E+07,
2460196.500000000, A.D. 2023-Sep-09 00:00:00.0000, -3.310622427711908E+08, 1.070211138398978E+08, -2.058641700153958E+07,
2460203.500000000, A.D. 2023-Sep-16 00:00:00.0000, -3.326140669754881E+08, 9.563801941303843E+07, -2.061701342615134E+07,
2460210.500000000, A.D. 2023-Sep-23 00:00:00.0000, -3.337785136021351E+08, 8.414352923518080E+07, -2.062359301550915E+07,
2460217.500000000, A.D. 2023-Sep-30 00:00:00.0000, -3.345478811195617E+08, 7.254942985492299E+07, -2.060575655593602E+07,
2460224.500000000, A.D. 2023-Oct-07 00:00:00.0000, -3.349146562440763E+08, 6.086801437740310E+07, -2.056311899421800E+07,
2460231.500000000, A.D. 2023-Oct-14 00:00:00.0000, -3.348715427336257E+08, 4.911209702794879E+07, -2.049531099609713E+07,
2460238.500000000, A.D. 2023-Oct-21 00:00:00.0000, -3.344114904112632E+08, 3.729502615740474E+07, -2.040198092383937E+07,
2460245.500000000, A.D. 2023-Oct-28 00:00:00.0000, -3.335277259544021E+08, 2.543069774432673E+07, -2.028279692171993E+07,
2460252.500000000, A.D. 2023-Nov-04 00:00:00.0000, -3.322137868118088E+08, 1.353356838835078E+07, -2.013744906291439E+07,
2460259.500000000, A.D. 2023-Nov-11 00:00:00.0000, -3.304635581786147E+08, 1.618666935789110E+06, -1.996565162872344E+07,
2460266.500000000, A.D. 2023-Nov-18 00:00:00.0000, -3.282713129015758E+08, -1.029839561294931E+07, -1.976714554945672E+07,
2460273.500000000, A.D. 2023-Nov-25 00:00:00.0000, -3.256317543135496E+08, -2.220141820989048E+07, -1.954170101402787E+07,
2460280.500000000, A.D. 2023-Dec-02 00:00:00.0000, -3.225400620187084E+08, -3.407360424287542E+07, -1.928912025260930E+07,
2460287.500000000, A.D. 2023-Dec-09 00:00:00.0000, -3.189919405737163E+08, -4.589755883956829E+07, -1.900924050363278E+07,
2460294.500000000, A.D. 2023-Dec-16 00:00:00.0000, -3.149836707677784E+08, -5.765528939702524E+07, -1.870193718792804E+07,
2460301.500000000, A.D. 2023-Dec-23 00:00:00.0000, -3.105121631038130E+08, -6.932820909792235E+07, -1.836712726081100E+07,
2460308.500000000, A.D. 2023-Dec-30 00:00:00.0000, -3.055750147234664E+08, -8.089714284129143E+07, -1.800477252537615E+07,
2460315.500000000, A.D. 2024-Jan-06 00:00:00.0000, -3.001705713954334E+08, -9.234233845131204E+07, -1.761488292561678E+07,
2460322.500000000, A.D. 2024-Jan-13 00:00:00.0000, -2.942979911769718E+08, -1.036434854936986E+08, -1.719752024140752E+07,
2460329.500000000, A.D. 2024-Jan-20 00:00:00.0000, -2.879573082252954E+08, -1.147797391517457E+08, -1.675280202182289E+07,
2460336.500000000, A.D. 2024-Jan-27 00:00:00.0000, -2.811494983955862E+08, -1.257297490631640E+08, -1.628090548792395E+07,
2460343.500000000, A.D. 2024-Feb-03 00:00:00.0000, -2.738765465795228E+08, -1.364716946346020E+08, -1.578207141214778E+07,
2460350.500000000, A.D. 2024-Feb-10 00:00:00.0000, -2.661415149562469E+08, -1.469833276863490E+08, -1.525660799115778E+07,
2460357.500000000, A.D. 2024-Feb-17 00:00:00.0000, -2.579486113736809E+08, -1.572420229450126E+08, -1.470489468582571E+07,
2460364.500000000, A.D. 2024-Feb-24 00:00:00.0000, -2.493032570663760E+08, -1.672248368432824E+08, -1.412738598281199E+07,
2460371.500000000, A.D. 2024-Mar-02 00:00:00.0000, -2.402121528011556E+08, -1.769085750710941E+08, -1.352461502690642E+07,
2460378.500000000, A.D. 2024-Mar-09 00:00:00.0000, -2.306833423150937E+08, -1.862698692744810E+08, -1.289719707893136E+07,
2460385.500000000, A.D. 2024-Mar-16 00:00:00.0000, -2.207262715438072E+08, -1.952852629372157E+08, -1.224583275045171E+07,
2460392.500000000, A.D. 2024-Mar-23 00:00:00.0000, -2.103518425348630E+08, -2.039313054414808E+08, -1.157131084105265E+07,
2460399.500000000, A.D. 2024-Mar-30 00:00:00.0000, -1.995724629870561E+08, -2.121846542870665E+08, -1.087451049640897E+07,
2460406.500000000, A.D. 2024-Apr-06 00:00:00.0000, -1.884020897866233E+08, -2.200221886157958E+08, -1.015640290483260E+07,
2460413.500000000, A.D. 2024-Apr-13 00:00:00.0000, -1.768562615710670E+08, -2.274211327873150E+08, -9.418052707172424E+06,
2460420.500000000, A.D. 2024-Apr-20 00:00:00.0000, -1.649521198345774E+08, -2.343591866882010E+08, -8.660618730698153E+06,
2460427.500000000, A.D. 2024-Apr-27 00:00:00.0000, -1.527084186648344E+08, -2.408146624511459E+08, -7.885353871734038E+06,
2460434.500000000, A.D. 2024-May-04 00:00:00.0000, -1.401455216466077E+08, -2.467666271487934E+08, -7.093604115029514E+06,
2460441.500000000, A.D. 2024-May-11 00:00:00.0000, -1.272853844126049E+08, -2.521950501696773E+08, -6.286806650551513E+06,
2460448.500000000, A.D. 2024-May-18 00:00:00.0000, -1.141515216276749E+08, -2.570809536118609E+08, -5.466487034893498E+06,
2460455.500000000, A.D. 2024-May-25 00:00:00.0000, -1.007689574540368E+08, -2.614065638176102E+08, -4.634255353952855E+06,
2460462.500000000, A.D. 2024-Jun-01 00:00:00.0000, -8.716415875995800E+07, -2.651554619970366E+08, -3.791801365604073E+06,
2460469.500000000, A.D. 2024-Jun-08 00:00:00.0000, -7.336495043887012E+07, -2.683127316636177E+08, -2.940888633917287E+06,
2460476.500000000, A.D. 2024-Jun-15 00:00:00.0000, -5.940041238470282E+07, -2.708650998985319E+08, -2.083347656108350E+06,
2460483.500000000, A.D. 2024-Jun-22 00:00:00.0000, -4.530075944339257E+07, -2.728010687563812E+08, -1.221067827546671E+06,
2460490.500000000, A.D. 2024-Jun-29 00:00:00.0000, -3.109720717557891E+07, -2.741110361170632E+08, -3.559882585010529E+05,
2460497.500000000, A.D. 2024-Jul-06 00:00:00.0000, -1.682182191642879E+07, -2.747874060139210E+08, 5.099120277817249E+05,
2460504.500000000, A.D. 2024-Jul-13 00:00:00.0000, -2.507354735939100E+06, -2.748246833226531E+08, 1.374624459519550E+06,
2460511.500000000, A.D. 2024-Jul-20 00:00:00.0000, 1.181293676202608E+07, -2.742195495847554E+08, 2.236121990357876E+06,
2460518.500000000, A.D. 2024-Jul-27 00:00:00.0000, 2.610547583679428E+07, -2.729709191321448E+08, 3.092370716607854E+06,
2460525.500000000, A.D. 2024-Aug-03 00:00:00.0000, 4.033656086610506E+07, -2.710799744520357E+08, 3.941341818072930E+06,
2460532.500000000, A.D. 2024-Aug-10 00:00:00.0000, 5.447256377908821E+07, -2.685501797768182E+08, 4.781023630575150E+06,
2460539.500000000, A.D. 2024-Aug-17 00:00:00.0000, 6.848012971295671E+07, -2.653872723169835E+08, 5.609433663036659E+06,
2460546.500000000, A.D. 2024-Aug-24 00:00:00.0000, 8.232637485547541E+07, -2.615992310903738E+08, 6.424630367582202E+06,
2460553.500000000, A.D. 2024-Aug-31 00:00:00.0000, 9.597907954751091E+07, -2.571962238472882E+08, 7.224724464923173E+06,
2460560.500000000, A.D. 2024-Sep-07 00:00:00.0000, 1.094068740789726E+08, -2.521905328956175E+08, 8.007889630669743E+06,
2460567.500000000, A.D. 2024-Sep-14 00:00:00.0000, 1.225794145274672E+08, -2.465964602142999E+08, 8.772372459427953E+06,
2460574.500000000, A.D. 2024-Sep-21 00:00:00.0000, 1.354675441524230E+08, -2.404302132293972E+08, 9.516501787855387E+06,
2460581.500000000, A.D. 2024-Sep-28 00:00:00.0000, 1.480434377439474E+08, -2.337097766070625E+08, 1.023869704077919E+07,
2460588.500000000, A.D. 2024-Oct-05 00:00:00.0000, 1.602807308822741E+08, -2.264547724615125E+08, 1.093747517286301E+07,
2460595.500000000, A.D. 2024-Oct-12 00:00:00.0000, 1.721546324639710E+08, -2.186863085963141E+08, 1.161145642004618E+07,
2460602.500000000, A.D. 2024-Oct-19 00:00:00.0000, 1.836420179013041E+08, -2.104268177578857E+08, 1.225936896525601E+07,
2460609.500000000, A.D. 2024-Oct-26 00:00:00.0000, 1.947215025553238E+08, -2.016998914336877E+08, 1.288005244860765E+07,
2460616.500000000, A.D. 2024-Nov-02 00:00:00.0000, 2.053734956674778E+08, -1.925301110163271E+08, 1.347246030269533E+07,
2460623.500000000, A.D. 2024-Nov-09 00:00:00.0000, 2.155802352782216E+08, -1.829428788506798E+08, 1.403566094152220E+07,
2460630.500000000, A.D. 2024-Nov-16 00:00:00.0000, 2.253258049039976E+08, -1.729642515052577E+08, 1.456883785342555E+07,
2460637.500000000, A.D. 2024-Nov-23 00:00:00.0000, 2.345961330801270E+08, -1.626207774265139E+08, 1.507128866002580E+07,
2460644.500000000, A.D. 2024-Nov-30 00:00:00.0000, 2.433789772969040E+08, -1.519393408741655E+08, 1.554242320727316E+07,
2460651.500000000, A.D. 2024-Dec-07 00:00:00.0000, 2.516638942578579E+08, -1.409470133035697E+08, 1.598176078882761E+07,
2460658.500000000, A.D. 2024-Dec-14 00:00:00.0000, 2.594421973993775E+08, -1.296709122761927E+08, 1.638892677720845E+07,
2460665.500000000, A.D. 2024-Dec-21 00:00:00.0000, 2.667069010327119E+08, -1.181380701449516E+08, 1.676364888403064E+07,
2460672.500000000, A.D. 2024-Dec-28 00:00:00.0000, 2.734526547702657E+08, -1.063753161843778E+08, 1.710575273042896E+07,
2460679.500000000, A.D. 2025-Jan-04 00:00:00.0000, 2.796756725075232E+08, -9.440917021613570E+07, 1.741515678527796E+07,
2460686.500000000, A.D. 2025-Jan-11 00:00:00.0000, 2.853736557642742E+08, -8.226574625800085E+07, 1.769186707258103E+07,
2460693.500000000, A.D. 2025-Jan-18 00:00:00.0000, 2.905457120065050E+08, -6.997066709156851E+07, 1.793597174981308E+07,
2460700.500000000, A.D. 2025-Jan-25 00:00:00.0000, 2.951922696189073E+08, -5.754899001504963E+07, 1.814763558115118E+07,
2460707.500000000, A.D. 2025-Feb-01 00:00:00.0000, 2.993149910167552E+08, -4.502514344841475E+07, 1.832709436235114E+07,
2460714.500000000, A.D. 2025-Feb-08 00:00:00.0000, 3.029166851182399E+08, -3.242287388371558E+07, 1.847464936130185E+07,
$$EOE